start=new Date('2022-07-11T00:00:00.000Z').valueOf();
sats=[{"ECCENTRICITY":"0.00016310","PERIAPSIS":"538.619","MEAN_MOTION_DOT":"0.00004942","APOAPSIS":"540.875","EPOCH":"2022-07-10T22:00:00.999936","ARG_OF_PERICENTER":"50.0107","EPHEMERIS_TYPE":"0","BSTAR":"0.00032841000000","CLASSIFICATION_TYPE":"U","MEAN_MOTION_DDOT":"0.0000000000000","SITE":"AFETR","TLE_LINE1":"1 52117U 22029AF  22191.91667824  .00004942  00000-0  32841-3 0  9999","NORAD_CAT_ID":"52117","DECAY_DATE":null,"COUNTRY_CODE":"US","INCLINATION":"53.2166","TIME_SYSTEM":"UTC","TLE_LINE2":"2 52117  53.2166 324.6003 0001631  50.0107 176.6084 15.08839499  1305","FILE":"3511318","REV_AT_EPOCH":"130","LAUNCH_DATE":"2022-03-19","RCS_SIZE":"LARGE","OBJECT_TYPE":"PAYLOAD","OBJECT_ID":"2022-029AF","PERIOD":"95.438","CENTER_NAME":"EARTH","SEMIMAJOR_AXIS":"6917.882","ELEMENT_SET_NO":"999","REF_FRAME":"TEME","RA_OF_ASC_NODE":"324.6003","MEAN_MOTION":"15.08839499","GP_ID":"207877660","OBJECT_NAME":"STARLINK-3738","MEAN_ELEMENT_THEORY":"SGP4","MEAN_ANOMALY":"176.6084"},{"ECCENTRICITY":"0.00016320","PERIAPSIS":"538.621","MEAN_MOTION_DOT":"0.00008659","APOAPSIS":"540.879","EPOCH":"2022-07-10T22:00:00.999936","EPHEMERIS_TYPE":"0","ARG_OF_PERICENTER":"48.8201","BSTAR":"0.00056148000000","CLASSIFICATION_TYPE":"U","SITE":"AFETR","MEAN_MOTION_DDOT":"0.0000000000000","TLE_LINE1":"1 52118U 22029AG  22191.91667824  .00008659  00000-0  56148-3 0  9995","NORAD_CAT_ID":"52118","DECAY_DATE":null,"INCLINATION":"53.2150","COUNTRY_CODE":"US","TIME_SYSTEM":"UTC","TLE_LINE2":"2 52118  53.2150 324.6013 0001632  48.8201 117.7993 15.08838595 18827","FILE":"3511155","REV_AT_EPOCH":"1882","RCS_SIZE":"LARGE","LAUNCH_DATE":"2022-03-19","OBJECT_ID":"2022-029AG","OBJECT_TYPE":"PAYLOAD","CENTER_NAME":"EARTH","PERIOD":"95.438","SEMIMAJOR_AXIS":"6917.885","ELEMENT_SET_NO":"999","REF_FRAME":"TEME","RA_OF_ASC_NODE":"324.6013","MEAN_MOTION":"15.08838595","GP_ID":"207848677","OBJECT_NAME":"STARLINK-3743","MEAN_ANOMALY":"117.7993","MEAN_ELEMENT_THEORY":"SGP4"},{"APOAPSIS":"540.864","MEAN_MOTION_DOT":"0.00000413","PERIAPSIS":"538.692","ECCENTRICITY":"0.00015700","DECAY_DATE":null,"TLE_LINE1":"1 52119U 22029AH  22191.91667824  .00000413  00000-0  44060-4 0  9997","NORAD_CAT_ID":"52119","SITE":"AFETR","MEAN_MOTION_DDOT":"0.0000000000000","BSTAR":"0.00004406000000","CLASSIFICATION_TYPE":"U","ARG_OF_PERICENTER":"50.5527","EPHEMERIS_TYPE":"0","EPOCH":"2022-07-10T22:00:00.999936","REF_FRAME":"TEME","PERIOD":"95.438","CENTER_NAME":"EARTH","SEMIMAJOR_AXIS":"6917.913","ELEMENT_SET_NO":"999","OBJECT_TYPE":"PAYLOAD","OBJECT_ID":"2022-029AH","LAUNCH_DATE":"2022-03-19","RCS_SIZE":"LARGE","FILE":"3511178","REV_AT_EPOCH":"1884","TLE_LINE2":"2 52119  53.2167 324.6009 0001570  50.5527 216.0493 15.08829457 18840","COUNTRY_CODE":"US","INCLINATION":"53.2167","TIME_SYSTEM":"UTC","MEAN_ANOMALY":"216.0493","MEAN_ELEMENT_THEORY":"SGP4","OBJECT_NAME":"STARLINK-3558","GP_ID":"207849082","RA_OF_ASC_NODE":"324.6009","MEAN_MOTION":"15.08829457"},{"EPOCH":"2022-07-10T22:00:00.999936","BSTAR":"0.00028249000000","CLASSIFICATION_TYPE":"U","ARG_OF_PERICENTER":"51.3603","EPHEMERIS_TYPE":"0","MEAN_MOTION_DDOT":"0.0000000000000","SITE":"AFETR","DECAY_DATE":null,"NORAD_CAT_ID":"52120","TLE_LINE1":"1 52120U 22029AJ  22191.91667824  .00004208  00000-0  28249-3 0  9995","PERIAPSIS":"538.701","ECCENTRICITY":"0.00015990","MEAN_MOTION_DOT":"0.00004208","APOAPSIS":"540.913","MEAN_MOTION":"15.08819751","RA_OF_ASC_NODE":"324.6003","OBJECT_NAME":"STARLINK-3534","GP_ID":"207877398","MEAN_ANOMALY":"155.2314","MEAN_ELEMENT_THEORY":"SGP4","TIME_SYSTEM":"UTC","COUNTRY_CODE":"US","INCLINATION":"53.2158","REV_AT_EPOCH":"130","FILE":"3511318","TLE_LINE2":"2 52120  53.2158 324.6003 0001599  51.3603 155.2314 15.08819751  1306","OBJECT_ID":"2022-029AJ","OBJECT_TYPE":"PAYLOAD","RCS_SIZE":"LARGE","LAUNCH_DATE":"2022-03-19","REF_FRAME":"TEME","ELEMENT_SET_NO":"999","PERIOD":"95.439","CENTER_NAME":"EARTH","SEMIMAJOR_AXIS":"6917.942"},{"EPHEMERIS_TYPE":"0","ARG_OF_PERICENTER":"43.7197","BSTAR":"-0.00073023000000","CLASSIFICATION_TYPE":"U","EPOCH":"2022-07-10T22:00:00.999936","NORAD_CAT_ID":"52121","TLE_LINE1":"1 52121U 22029AK  22191.91667824 -.00011890  00000-0 -73023-3 0  9993","DECAY_DATE":null,"MEAN_MOTION_DDOT":"0.0000000000000","SITE":"AFETR","ECCENTRICITY":"0.00017520","PERIAPSIS":"538.541","APOAPSIS":"540.965","MEAN_MOTION_DOT":"-0.00011890","MEAN_MOTION":"15.08837650","RA_OF_ASC_NODE":"314.6192","MEAN_ELEMENT_THEORY":"SGP4","MEAN_ANOMALY":"317.9277","GP_ID":"207877298","OBJECT_NAME":"STARLINK-3678","TLE_LINE2":"2 52121  53.2153 314.6192 0001752  43.7197 317.9277 15.08837650  1307","REV_AT_EPOCH":"130","FILE":"3511318","TIME_SYSTEM":"UTC","INCLINATION":"53.2153","COUNTRY_CODE":"US","ELEMENT_SET_NO":"999","PERIOD":"95.438","SEMIMAJOR_AXIS":"6917.888","CENTER_NAME":"EARTH","REF_FRAME":"TEME","RCS_SIZE":"LARGE","LAUNCH_DATE":"2022-03-19","OBJECT_TYPE":"PAYLOAD","OBJECT_ID":"2022-029AK"},{"ECCENTRICITY":"0.00015440","PERIAPSIS":"538.664","MEAN_MOTION_DOT":"0.00002921","APOAPSIS":"540.800","EPOCH":"2022-07-10T22:00:00.999936","ARG_OF_PERICENTER":"51.8630","EPHEMERIS_TYPE":"0","BSTAR":"0.00020154000000","CLASSIFICATION_TYPE":"U","SITE":"AFETR","MEAN_MOTION_DDOT":"0.0000000000000","TLE_LINE1":"1 52122U 22029AL  22191.91667824  .00002921  00000-0  20154-3 0  9994","NORAD_CAT_ID":"52122","DECAY_DATE":null,"INCLINATION":"53.2158","COUNTRY_CODE":"US","TIME_SYSTEM":"UTC","TLE_LINE2":"2 52122  53.2158 324.5995 0001544  51.8630 194.7518 15.08844372  1303","FILE":"3511318","REV_AT_EPOCH":"130","RCS_SIZE":"LARGE","LAUNCH_DATE":"2022-03-19","OBJECT_ID":"2022-029AL","OBJECT_TYPE":"PAYLOAD","SEMIMAJOR_AXIS":"6917.867","PERIOD":"95.437","CENTER_NAME":"EARTH","ELEMENT_SET_NO":"999","REF_FRAME":"TEME","RA_OF_ASC_NODE":"324.5995","MEAN_MOTION":"15.08844372","GP_ID":"207877493","OBJECT_NAME":"STARLINK-3726","MEAN_ELEMENT_THEORY":"SGP4","MEAN_ANOMALY":"194.7518"},{"APOAPSIS":"541.189","MEAN_MOTION_DOT":"-0.00008921","ECCENTRICITY":"0.00020300","PERIAPSIS":"538.380","TLE_LINE1":"1 52123U 22029AM  22191.91667824 -.00008921  00000-0 -54324-3 0  9999","NORAD_CAT_ID":"52123","DECAY_DATE":null,"SITE":"AFETR","MEAN_MOTION_DDOT":"0.0000000000000","EPHEMERIS_TYPE":"0","ARG_OF_PERICENTER":"35.3865","CLASSIFICATION_TYPE":"U","BSTAR":"-0.00054324000000","EPOCH":"2022-07-10T22:00:00.999936","PERIOD":"95.438","SEMIMAJOR_AXIS":"6917.920","CENTER_NAME":"EARTH","ELEMENT_SET_NO":"999","REF_FRAME":"TEME","LAUNCH_DATE":"2022-03-19","RCS_SIZE":"LARGE","OBJECT_ID":"2022-029AM","OBJECT_TYPE":"PAYLOAD","TLE_LINE2":"2 52123  53.2167 314.6203 0002030  35.3865   6.2353 15.08827156 18970","FILE":"3511318","REV_AT_EPOCH":"1897","INCLINATION":"53.2167","COUNTRY_CODE":"US","TIME_SYSTEM":"UTC","MEAN_ANOMALY":"6.2353","MEAN_ELEMENT_THEORY":"SGP4","GP_ID":"207877560","OBJECT_NAME":"STARLINK-3725","RA_OF_ASC_NODE":"314.6203","MEAN_MOTION":"15.08827156"},{"EPOCH":"2022-07-10T22:00:00.999936","BSTAR":"0.00150370000000","CLASSIFICATION_TYPE":"U","ARG_OF_PERICENTER":"55.5018","EPHEMERIS_TYPE":"0","MEAN_MOTION_DDOT":"0.0000000000000","SITE":"AFETR","DECAY_DATE":null,"NORAD_CAT_ID":"52124","TLE_LINE1":"1 52124U 22029AN  22191.91667824  .00023719  00000-0  15037-2 0  9997","PERIAPSIS":"538.704","ECCENTRICITY":"0.00015440","MEAN_MOTION_DOT":"0.00023719","APOAPSIS":"540.840","MEAN_MOTION":"15.08831296","RA_OF_ASC_NODE":"324.6000","OBJECT_NAME":"STARLINK-3684","GP_ID":"207851891","MEAN_ELEMENT_THEORY":"SGP4","MEAN_ANOMALY":"231.1050","TIME_SYSTEM":"UTC","COUNTRY_CODE":"US","INCLINATION":"53.2160","REV_AT_EPOCH":"1882","FILE":"3511282","TLE_LINE2":"2 52124  53.2160 324.6000 0001544  55.5018 231.1050 15.08831296 18820","OBJECT_TYPE":"PAYLOAD","OBJECT_ID":"2022-029AN","RCS_SIZE":"LARGE","LAUNCH_DATE":"2022-03-19","REF_FRAME":"TEME","ELEMENT_SET_NO":"999","CENTER_NAME":"EARTH","PERIOD":"95.438","SEMIMAJOR_AXIS":"6917.907"},{"REF_FRAME":"TEME","ELEMENT_SET_NO":"999","PERIOD":"95.437","SEMIMAJOR_AXIS":"6917.857","CENTER_NAME":"EARTH","OBJECT_ID":"2022-029AP","OBJECT_TYPE":"PAYLOAD","LAUNCH_DATE":"2022-03-19","RCS_SIZE":"LARGE","REV_AT_EPOCH":"1897","FILE":"3511318","TLE_LINE2":"2 52125  53.2160 314.6187 0001833  42.3027  19.2865 15.08847674 18973","TIME_SYSTEM":"UTC","COUNTRY_CODE":"US","INCLINATION":"53.2160","MEAN_ELEMENT_THEORY":"SGP4","MEAN_ANOMALY":"19.2865","OBJECT_NAME":"STARLINK-3727","GP_ID":"207877661","MEAN_MOTION":"15.08847674","RA_OF_ASC_NODE":"314.6187","APOAPSIS":"540.990","MEAN_MOTION_DOT":"-0.00007889","PERIAPSIS":"538.454","ECCENTRICITY":"0.00018330","DECAY_DATE":null,"NORAD_CAT_ID":"52125","TLE_LINE1":"1 52125U 22029AP  22191.91667824 -.00007889  00000-0 -47800-3 0  9994","MEAN_MOTION_DDOT":"0.0000000000000","SITE":"AFETR","CLASSIFICATION_TYPE":"U","BSTAR":"-0.00047800000000","EPHEMERIS_TYPE":"0","ARG_OF_PERICENTER":"42.3027","EPOCH":"2022-07-10T22:00:00.999936"},{"SITE":"AFETR","MEAN_MOTION_DDOT":"0.0000000000000","NORAD_CAT_ID":"52126","TLE_LINE1":"1 52126U 22029AQ  22191.91667824 -.00010381  00000-0 -63486-3 0  9994","DECAY_DATE":null,"EPOCH":"2022-07-10T22:00:00.999936","EPHEMERIS_TYPE":"0","ARG_OF_PERICENTER":"42.1794","BSTAR":"-0.00063486000000","CLASSIFICATION_TYPE":"U","MEAN_MOTION_DOT":"-0.00010381","APOAPSIS":"541.022","ECCENTRICITY":"0.00018990","PERIAPSIS":"538.395","GP_ID":"207877857","OBJECT_NAME":"STARLINK-3732","MEAN_ANOMALY":"339.4202","MEAN_ELEMENT_THEORY":"SGP4","MEAN_MOTION":"15.08852049","RA_OF_ASC_NODE":"314.6194","RCS_SIZE":"LARGE","LAUNCH_DATE":"2022-03-19","OBJECT_TYPE":"PAYLOAD","OBJECT_ID":"2022-029AQ","ELEMENT_SET_NO":"999","PERIOD":"95.437","CENTER_NAME":"EARTH","SEMIMAJOR_AXIS":"6917.844","REF_FRAME":"TEME","TIME_SYSTEM":"UTC","COUNTRY_CODE":"US","INCLINATION":"53.2154","TLE_LINE2":"2 52126  53.2154 314.6194 0001899  42.1794 339.4202 15.08852049  1309","REV_AT_EPOCH":"130","FILE":"3511318"}];
